ONEWEB-0012             
1 44057U 19010A   26201.31183823 -.00000016  00000+0 -76150-4 0  9992
2 44057  87.9074 222.2047 0001644  95.7914 264.3404 13.16594597355923
ONEWEB-0010             
1 44058U 19010B   26201.10920007 -.00000014  00000+0 -69947-4 0  9997
2 44058  87.9076 222.2414 0002332  98.3520 261.7876 13.16593872355942
ONEWEB-0008             
1 44059U 19010C   26201.13452846  .00000041  00000+0  73870-4 0  9990
2 44059  87.9078 222.2313 0002093  85.7711 274.3659 13.16594133356063
ONEWEB-0007             
1 44060U 19010D   26201.11975795  .00000112  00000+0  26329-3 0  9998
2 44060  87.8975 252.6587 0002031 106.6953 253.4401 13.15548839355707
ONEWEB-0006             
1 44061U 19010E   26201.12369355  .00000036  00000+0  60694-4 0  9998
2 44061  87.8985 252.6256 0002215  96.5008 263.6375 13.15551092355757
ONEWEB-0011             
1 44062U 19010F   26201.09200952 -.00000225  00000+0 -63234-3 0  9996
2 44062  87.8990 252.6421 0002247  94.2439 265.8948 13.15548615355742
ONEWEB-0013             
1 45131U 20008A   26201.10310840  .00000686  00000+0  19542-2 0  9994
2 45131  87.8489  46.1786 0000830  77.3222 282.7997 13.09457652310376
ONEWEB-0017             
1 45132U 20008B   26201.06256343  .00000457  00000+0  12715-2 0  9998
2 45132  87.8811  29.7158 0002030  91.2655 268.8705 13.10373197312259
ONEWEB-0020             
1 45133U 20008C   26201.26107890 -.00000182  00000+0 -55646-3 0  9991
2 45133  87.8825  29.6762 0001820  87.8816 272.2520 13.10375554312670
ONEWEB-0021             
1 45134U 20008D   26201.27635724  .00000538  00000+0  15038-2 0  9998
2 45134  87.8814  29.6874 0001789  91.9092 268.2241 13.10373870312987
ONEWEB-0023             
1 45136U 20008F   26201.05832095  .00000629  00000+0  17660-2 0  9990
2 45136  87.8820  29.7148 0001764  82.9796 277.1532 13.10370217312383
ONEWEB-0024             
1 45137U 20008G   26201.25951215 -.00000325  00000+0 -96842-3 0  9994
2 45137  87.8831  29.6688 0001860  90.2672 269.8668 13.10374761312573
ONEWEB-0025             
1 45138U 20008H   26201.03016428 -.00000251  00000+0 -75515-3 0  9991
2 45138  87.8832  29.7043 0002132  78.9198 281.2169 13.10375643312877
ONEWEB-0026             
1 45139U 20008J   26201.04246784 -.00000460  00000+0 -13348-2 0  9990
2 45139  87.8887  14.5250 0001982  91.7682 268.3673 13.11415834315410
ONEWEB-0028             
1 45140U 20008K   26201.01790124  .00000388  00000+0  10603-2 0  9999
2 45140  87.8884  14.5371 0001249  90.4835 269.6436 13.11414966312924
ONEWEB-0032             
1 45141U 20008L   26201.06440198  .00000355  00000+0  98055-3 0  9990
2 45141  87.8814  29.7175 0001389  81.4632 278.6652 13.10371120312606
ONEWEB-0033             
1 45142U 20008M   26201.03879945  .00000272  00000+0  74278-3 0  9993
2 45142  87.8814  29.7287 0002316  94.3515 265.7877 13.10375097312518
ONEWEB-0035             
1 45143U 20008N   26201.05929629  .00000538  00000+0  15036-2 0  9992
2 45143  87.8814  29.7179 0001849  91.1300 269.0039 13.10374991312245
ONEWEB-0036             
1 45144U 20008P   26201.26605514  .00000085  00000+0  20611-3 0  9993
2 45144  87.8836  29.6948 0001682  84.2716 275.8603 13.10377224312695
ONEWEB-0038             
1 45145U 20008Q   26200.97648254 -.00000476  00000+0 -13797-2 0  9991
2 45145  87.8902  14.5521 0002332 137.9072 222.2236 13.11417938314625
ONEWEB-0039             
1 45146U 20008R   26201.04219828  .00000437  00000+0  12159-2 0  9998
2 45146  87.8822  29.7189 0001313  88.5934 271.5344 13.10374857312469
ONEWEB-0040             
1 45147U 20008S   26201.03539616  .00000103  00000+0  25754-3 0  9994
2 45147  87.8819  29.7307 0001788  78.5748 281.5581 13.10375331312165
ONEWEB-0043             
1 45149U 20008U   26201.26629845  .00000101  00000+0  25173-3 0  9998
2 45149  87.8825  29.6744 0001289  85.2748 274.8527 13.10378211312513
ONEWEB-0044             
1 45150U 20008V   26201.21866802  .00000343  00000+0  94592-3 0  9990
2 45150  87.8823  29.6857 0001696  86.5999 273.5322 13.10372837312801
ONEWEB-0045             
1 45151U 20008W   26201.04755294 -.00000550  00000+0 -15883-2 0  9991
2 45151  87.8893  14.5185 0001722  93.6683 266.4642 13.11417112314710
ONEWEB-0047             
1 45152U 20008X   26201.05902932  .00000564  00000+0  15795-2 0  9991
2 45152  87.8822  29.7166 0001971  94.9076 265.2277 13.10371007312503
ONEWEB-0048             
1 45153U 20008Y   26201.28315815  .00000663  00000+0  18616-2 0  9990
2 45153  87.8814  29.6904 0001765  92.7325 267.4004 13.10373943312141
ONEWEB-0049             
1 45154U 20008Z   26201.28639888  .00000657  00000+0  18444-2 0  9992
2 45154  87.8813  29.6787 0001809  75.8427 284.2902 13.10371391312367
ONEWEB-0051             
1 45155U 20008AA  26201.04585490 -.00000435  00000+0 -12632-2 0  9995
2 45155  87.8891  14.5240 0001809  91.5961 268.5374 13.11417603315391
ONEWEB-0052             
1 45156U 20008AB  26201.07796097 -.00000326  00000+0 -97035-3 0  9996
2 45156  87.8819  29.7081 0001662  78.3317 281.7997 13.10372253312247
